TWILIGHT P              
1 67376U 26004P   26032.46338271  .00002509  00000+0  28073-3 0  9996
2 67376  97.7996  33.2809 0004706 200.9395 159.1630 14.87788329  3115
TWILIGHT Q              
1 67377U 26004Q   26030.51082351  .00145780  00000+0  15452-1 0  9990
2 67377  97.7999  31.3669 0006652 209.0200 151.0648 14.88280196  2815
TWILIGHT R              
1 67378U 26004R   26032.46441651  .00002650  00000+0  29661-3 0  9996
2 67378  97.7970  33.2744 0004079 209.9707 150.1276 14.87720763  3100
TWILIGHT S              
1 67379U 26004S   26032.46425712  .00002506  00000+0  28074-3 0  9994
2 67379  97.7974  33.2763 0004604 206.6141 153.4840 14.87728963  3109
TWILIGHT T              
1 67380U 26004T   26032.46298697  .00002694  00000+0  30064-3 0  9996
2 67380  97.7967  33.2763 0004127 205.1765 154.9251 14.87829934  3101
TWILIGHT U              
1 67381U 26004U   26029.09880990 -.00108713  00000+0 -12141-1 0  9990
2 67381  97.8008  29.9801 0002092 273.6119  86.4858 14.87635069  2606
TWILIGHT V              
1 67382U 26004V   26032.46022607  .00002445  00000+0  27220-3 0  9998
2 67382  97.7995  33.2849 0004119 190.0997 170.0137 14.88014393  3107
TWILIGHT W              
1 67383U 26004W   26032.46406119  .00002708  00000+0  30284-3 0  9999
2 67383  97.7971  33.2758 0004425 207.5372 152.5610 14.87747111  3103
TWILIGHT X              
1 67384U 26004X   26032.45838629  .00003938  00000+0  43213-3 0  9996
2 67384  97.7967  33.2831 0003520 190.2929 169.8217 14.88257853  3106
TWILIGHT Y              
1 67385U 26004Y   26032.45720397  .00005273  00000+0  57518-3 0  9996
2 67385  97.7978  33.2865 0003536 183.5880 176.5312 14.88352138  3107
TWILIGHT Z              
1 67386U 26004Z   26032.45580137  .00002548  00000+0  28124-3 0  9996
2 67386  97.7961  33.2862 0002316 180.4844 179.6371 14.88331806  3106
TWILIGHT AA             
1 67387U 26004AA  26032.45220871  .00006728  00000+0  72653-3 0  9993
2 67387  97.8010  33.2974 0003630 152.2127 207.9285 14.88667135  3104
