CCSDS_OMM_VERS = 2.0
CREATION_DATE  = 
ORIGINATOR     = 

OBJECT_NAME    = TWILIGHT P
OBJECT_ID      = 2026-004P
CENTER_NAME    = EARTH
REF_FRAME      = TEME
TIME_SYSTEM    = UTC
MEAN_ELEMENT_THEORY = SGP/SGP4

EPOCH          = 2026-02-01T11:07:16.266144
MEAN_MOTION    = 14.87788329
ECCENTRICITY   = .0004706
INCLINATION    = 97.7996
RA_OF_ASC_NODE = 33.2809
ARG_OF_PERICENTER = 200.9395
MEAN_ANOMALY   = 159.1630

EPHEMERIS_TYPE = 0
CLASSIFICATION_TYPE = U
NORAD_CAT_ID   = 67376
ELEMENT_SET_NO = 999
REV_AT_EPOCH   = 311
BSTAR          = .28073E-3
MEAN_MOTION_DOT = .2509E-4
MEAN_MOTION_DDOT = 0

CCSDS_OMM_VERS = 2.0
CREATION_DATE  = 
ORIGINATOR     = 

OBJECT_NAME    = TWILIGHT Q
OBJECT_ID      = 2026-004Q
CENTER_NAME    = EARTH
REF_FRAME      = TEME
TIME_SYSTEM    = UTC
MEAN_ELEMENT_THEORY = SGP/SGP4

EPOCH          = 2026-01-30T12:15:35.151264
MEAN_MOTION    = 14.88280196
ECCENTRICITY   = .00066529
INCLINATION    = 97.7999
RA_OF_ASC_NODE = 31.3669
ARG_OF_PERICENTER = 209.0200
MEAN_ANOMALY   = 151.0648

EPHEMERIS_TYPE = 0
CLASSIFICATION_TYPE = U
NORAD_CAT_ID   = 67377
ELEMENT_SET_NO = 999
REV_AT_EPOCH   = 281
BSTAR          = .15452251E-1
MEAN_MOTION_DOT = .14578E-2
MEAN_MOTION_DDOT = 0

CCSDS_OMM_VERS = 2.0
CREATION_DATE  = 
ORIGINATOR     = 

OBJECT_NAME    = TWILIGHT R
OBJECT_ID      = 2026-004R
CENTER_NAME    = EARTH
REF_FRAME      = TEME
TIME_SYSTEM    = UTC
MEAN_ELEMENT_THEORY = SGP/SGP4

EPOCH          = 2026-02-01T11:08:45.586464
MEAN_MOTION    = 14.87720763
ECCENTRICITY   = .0004079
INCLINATION    = 97.7970
RA_OF_ASC_NODE = 33.2744
ARG_OF_PERICENTER = 209.9707
MEAN_ANOMALY   = 150.1276

EPHEMERIS_TYPE = 0
CLASSIFICATION_TYPE = U
NORAD_CAT_ID   = 67378
ELEMENT_SET_NO = 999
REV_AT_EPOCH   = 310
BSTAR          = .29661E-3
MEAN_MOTION_DOT = .265E-4
MEAN_MOTION_DDOT = 0

CCSDS_OMM_VERS = 2.0
CREATION_DATE  = 
ORIGINATOR     = 

OBJECT_NAME    = TWILIGHT S
OBJECT_ID      = 2026-004S
CENTER_NAME    = EARTH
REF_FRAME      = TEME
TIME_SYSTEM    = UTC
MEAN_ELEMENT_THEORY = SGP/SGP4

EPOCH          = 2026-02-01T11:08:31.815168
MEAN_MOTION    = 14.87728963
ECCENTRICITY   = .0004604
INCLINATION    = 97.7974
RA_OF_ASC_NODE = 33.2763
ARG_OF_PERICENTER = 206.6141
MEAN_ANOMALY   = 153.4840

EPHEMERIS_TYPE = 0
CLASSIFICATION_TYPE = U
NORAD_CAT_ID   = 67379
ELEMENT_SET_NO = 999
REV_AT_EPOCH   = 310
BSTAR          = .28074E-3
MEAN_MOTION_DOT = .2506E-4
MEAN_MOTION_DDOT = 0

CCSDS_OMM_VERS = 2.0
CREATION_DATE  = 
ORIGINATOR     = 

OBJECT_NAME    = TWILIGHT T
OBJECT_ID      = 2026-004T
CENTER_NAME    = EARTH
REF_FRAME      = TEME
TIME_SYSTEM    = UTC
MEAN_ELEMENT_THEORY = SGP/SGP4

EPOCH          = 2026-02-01T11:06:42.074208
MEAN_MOTION    = 14.87829934
ECCENTRICITY   = .0004127
INCLINATION    = 97.7967
RA_OF_ASC_NODE = 33.2763
ARG_OF_PERICENTER = 205.1765
MEAN_ANOMALY   = 154.9251

EPHEMERIS_TYPE = 0
CLASSIFICATION_TYPE = U
NORAD_CAT_ID   = 67380
ELEMENT_SET_NO = 999
REV_AT_EPOCH   = 310
BSTAR          = .30064E-3
MEAN_MOTION_DOT = .2694E-4
MEAN_MOTION_DDOT = 0

CCSDS_OMM_VERS = 2.0
CREATION_DATE  = 
ORIGINATOR     = 

OBJECT_NAME    = TWILIGHT U
OBJECT_ID      = 2026-004U
CENTER_NAME    = EARTH
REF_FRAME      = TEME
TIME_SYSTEM    = UTC
MEAN_ELEMENT_THEORY = SGP/SGP4

EPOCH          = 2026-01-29T02:22:17.175360
MEAN_MOTION    = 14.87635069
ECCENTRICITY   = .00020921
INCLINATION    = 97.8008
RA_OF_ASC_NODE = 29.9801
ARG_OF_PERICENTER = 273.6119
MEAN_ANOMALY   = 86.4858

EPHEMERIS_TYPE = 0
CLASSIFICATION_TYPE = U
NORAD_CAT_ID   = 67381
ELEMENT_SET_NO = 999
REV_AT_EPOCH   = 260
BSTAR          = -.12140991E-1
MEAN_MOTION_DOT = -.108713E-2
MEAN_MOTION_DDOT = 0

CCSDS_OMM_VERS = 2.0
CREATION_DATE  = 
ORIGINATOR     = 

OBJECT_NAME    = TWILIGHT V
OBJECT_ID      = 2026-004V
CENTER_NAME    = EARTH
REF_FRAME      = TEME
TIME_SYSTEM    = UTC
MEAN_ELEMENT_THEORY = SGP/SGP4

EPOCH          = 2026-02-01T11:02:43.532448
MEAN_MOTION    = 14.88014393
ECCENTRICITY   = .0004119
INCLINATION    = 97.7995
RA_OF_ASC_NODE = 33.2849
ARG_OF_PERICENTER = 190.0997
MEAN_ANOMALY   = 170.0137

EPHEMERIS_TYPE = 0
CLASSIFICATION_TYPE = U
NORAD_CAT_ID   = 67382
ELEMENT_SET_NO = 999
REV_AT_EPOCH   = 310
BSTAR          = .2722E-3
MEAN_MOTION_DOT = .2445E-4
MEAN_MOTION_DDOT = 0

CCSDS_OMM_VERS = 2.0
CREATION_DATE  = 
ORIGINATOR     = 

OBJECT_NAME    = TWILIGHT W
OBJECT_ID      = 2026-004W
CENTER_NAME    = EARTH
REF_FRAME      = TEME
TIME_SYSTEM    = UTC
MEAN_ELEMENT_THEORY = SGP/SGP4

EPOCH          = 2026-02-01T11:08:14.886816
MEAN_MOTION    = 14.87747111
ECCENTRICITY   = .0004425
INCLINATION    = 97.7971
RA_OF_ASC_NODE = 33.2758
ARG_OF_PERICENTER = 207.5372
MEAN_ANOMALY   = 152.5610

EPHEMERIS_TYPE = 0
CLASSIFICATION_TYPE = U
NORAD_CAT_ID   = 67383
ELEMENT_SET_NO = 999
REV_AT_EPOCH   = 310
BSTAR          = .30284E-3
MEAN_MOTION_DOT = .2708E-4
MEAN_MOTION_DDOT = 0

CCSDS_OMM_VERS = 2.0
CREATION_DATE  = 
ORIGINATOR     = 

OBJECT_NAME    = TWILIGHT X
OBJECT_ID      = 2026-004X
CENTER_NAME    = EARTH
REF_FRAME      = TEME
TIME_SYSTEM    = UTC
MEAN_ELEMENT_THEORY = SGP/SGP4

EPOCH          = 2026-02-01T11:00:04.575456
MEAN_MOTION    = 14.88257853
ECCENTRICITY   = .000352
INCLINATION    = 97.7967
RA_OF_ASC_NODE = 33.2831
ARG_OF_PERICENTER = 190.2929
MEAN_ANOMALY   = 169.8217

EPHEMERIS_TYPE = 0
CLASSIFICATION_TYPE = U
NORAD_CAT_ID   = 67384
ELEMENT_SET_NO = 999
REV_AT_EPOCH   = 310
BSTAR          = .43213E-3
MEAN_MOTION_DOT = .3938E-4
MEAN_MOTION_DDOT = 0

CCSDS_OMM_VERS = 2.0
CREATION_DATE  = 
ORIGINATOR     = 

OBJECT_NAME    = TWILIGHT Y
OBJECT_ID      = 2026-004Y
CENTER_NAME    = EARTH
REF_FRAME      = TEME
TIME_SYSTEM    = UTC
MEAN_ELEMENT_THEORY = SGP/SGP4

EPOCH          = 2026-02-01T10:58:22.423008
MEAN_MOTION    = 14.88352138
ECCENTRICITY   = .0003536
INCLINATION    = 97.7978
RA_OF_ASC_NODE = 33.2865
ARG_OF_PERICENTER = 183.5880
MEAN_ANOMALY   = 176.5312

EPHEMERIS_TYPE = 0
CLASSIFICATION_TYPE = U
NORAD_CAT_ID   = 67385
ELEMENT_SET_NO = 999
REV_AT_EPOCH   = 310
BSTAR          = .57518E-3
MEAN_MOTION_DOT = .5273E-4
MEAN_MOTION_DDOT = 0

CCSDS_OMM_VERS = 2.0
CREATION_DATE  = 
ORIGINATOR     = 

OBJECT_NAME    = TWILIGHT Z
OBJECT_ID      = 2026-004Z
CENTER_NAME    = EARTH
REF_FRAME      = TEME
TIME_SYSTEM    = UTC
MEAN_ELEMENT_THEORY = SGP/SGP4

EPOCH          = 2026-02-01T10:56:21.238368
MEAN_MOTION    = 14.88331806
ECCENTRICITY   = .0002316
INCLINATION    = 97.7961
RA_OF_ASC_NODE = 33.2862
ARG_OF_PERICENTER = 180.4844
MEAN_ANOMALY   = 179.6371

EPHEMERIS_TYPE = 0
CLASSIFICATION_TYPE = U
NORAD_CAT_ID   = 67386
ELEMENT_SET_NO = 999
REV_AT_EPOCH   = 310
BSTAR          = .28124E-3
MEAN_MOTION_DOT = .2548E-4
MEAN_MOTION_DDOT = 0

CCSDS_OMM_VERS = 2.0
CREATION_DATE  = 
ORIGINATOR     = 

OBJECT_NAME    = TWILIGHT AA
OBJECT_ID      = 2026-004AA
CENTER_NAME    = EARTH
REF_FRAME      = TEME
TIME_SYSTEM    = UTC
MEAN_ELEMENT_THEORY = SGP/SGP4

EPOCH          = 2026-02-01T10:51:10.832544
MEAN_MOTION    = 14.88667135
ECCENTRICITY   = .000363
INCLINATION    = 97.8010
RA_OF_ASC_NODE = 33.2974
ARG_OF_PERICENTER = 152.2127
MEAN_ANOMALY   = 207.9285

EPHEMERIS_TYPE = 0
CLASSIFICATION_TYPE = U
NORAD_CAT_ID   = 67387
ELEMENT_SET_NO = 999
REV_AT_EPOCH   = 310
BSTAR          = .72653E-3
MEAN_MOTION_DOT = .6728E-4
MEAN_MOTION_DDOT = 0

